{
  "type": "FeatureCollection",
  "features": [
    {
      "type": "Feature",
      "properties": {
        "norad_id": 33887,
        "name": "IRIDIUM 33 DEB",
        "group": "iridium-33-debris",
        "lat": 46.83281203204085,
        "lon": 1.1586768771564844,
        "alt_km": 766.0918582674358,
        "timestamp": "2025-12-27T02:10:16.573973+00:00",
        "meta_object_name": "IRIDIUM 33 DEB",
        "meta_object_id": "1997-051BG",
        "meta_epoch": "2025-12-26T01:09:55.785312",
        "meta_mean_motion": 14.37232581,
        "meta_eccentricity": 0.00058983,
        "meta_inclination": 86.3044,
        "meta_ra_of_asc_node": 357.6564,
        "meta_arg_of_pericenter": 176.4648,
        "meta_mean_anomaly": 243.1701,
        "meta_ephemeris_type": 0,
        "meta_classification_type": "U",
        "meta_norad_cat_id": 33887,
        "meta_element_set_no": 999,
        "meta_rev_at_epoch": 88356,
        "meta_bstar": 0.00014545145,
        "meta_mean_motion_dot": 4.53e-06,
        "meta_mean_motion_ddot": 0,
        "tle_line1": "1 33887U 97051BG  25360.04856233  .00000453  00000+0  14545-3 0  9991",
        "tle_line2": "2 33887  86.3044 357.6564 0005898 176.4648 243.1701 14.37232581883562"
      },
      "geometry": {
        "type": "Point",
        "coordinates": [
          1.1586768771564844,
          46.83281203204085
        ]
      }
    },
    {
      "type": "Feature",
      "properties": {
        "norad_id": 33953,
        "name": "IRIDIUM 33 DEB",
        "group": "iridium-33-debris",
        "lat": 60.033489855375436,
        "lon": -138.74833415401255,
        "alt_km": 696.1730621841862,
        "timestamp": "2025-12-27T02:10:16.573984+00:00",
        "meta_object_name": "IRIDIUM 33 DEB",
        "meta_object_id": "1997-051BN",
        "meta_epoch": "2025-12-26T14:46:02.739936",
        "meta_mean_motion": 14.55451821,
        "meta_eccentricity": 0.0017451,
        "meta_inclination": 86.3834,
        "meta_ra_of_asc_node": 47.7557,
        "meta_arg_of_pericenter": 60.1468,
        "meta_mean_anomaly": 91.3298,
        "meta_ephemeris_type": 0,
        "meta_classification_type": "U",
        "meta_norad_cat_id": 33953,
        "meta_element_set_no": 999,
        "meta_rev_at_epoch": 88505,
        "meta_bstar": 0.0011159,
        "meta_mean_motion_dot": 4.881e-05,
        "meta_mean_motion_ddot": 0,
        "tle_line1": "1 33953U 97051BN  25360.61530949  .00004881  00000+0  11159-2 0  9997",
        "tle_line2": "2 33953  86.3834  47.7557 0017451  60.1468  91.3298 14.55451821885059"
      },
      "geometry": {
        "type": "Point",
        "coordinates": [
          -138.74833415401255,
          60.033489855375436
        ]
      }
    },
    {
      "type": "Feature",
      "properties": {
        "norad_id": 33960,
        "name": "IRIDIUM 33 DEB",
        "group": "iridium-33-debris",
        "lat": 39.22434457880303,
        "lon": -74.18819807443829,
        "alt_km": 602.9526124420945,
        "timestamp": "2025-12-27T02:10:16.573995+00:00",
        "meta_object_name": "IRIDIUM 33 DEB",
        "meta_object_id": "1997-051BV",
        "meta_epoch": "2025-12-26T19:47:13.318080",
        "meta_mean_motion": 14.85911573,
        "meta_eccentricity": 0.0006959,
        "meta_inclination": 86.2536,
        "meta_ra_of_asc_node": 282.8713,
        "meta_arg_of_pericenter": 37.5065,
        "meta_mean_anomaly": 19.8748,
        "meta_ephemeris_type": 0,
        "meta_classification_type": "U",
        "meta_norad_cat_id": 33960,
        "meta_element_set_no": 999,
        "meta_rev_at_epoch": 89076,
        "meta_bstar": 0.0032209,
        "meta_mean_motion_dot": 0.00028197,
        "meta_mean_motion_ddot": 0,
        "tle_line1": "1 33960U 97051BV  25360.82445970  .00028197  00000+0  32209-2 0  9992",
        "tle_line2": "2 33960  86.2536 282.8713 0006959  37.5065  19.8748 14.85911573890760"
      },
      "geometry": {
        "type": "Point",
        "coordinates": [
          -74.18819807443829,
          39.22434457880303
        ]
      }
    },
    {
      "type": "Feature",
      "properties": {
        "norad_id": 33966,
        "name": "IRIDIUM 33 DEB",
        "group": "iridium-33-debris",
        "lat": -51.93754336357997,
        "lon": 35.24435617420262,
        "alt_km": 739.908490597566,
        "timestamp": "2025-12-27T02:10:16.574005+00:00",
        "meta_object_name": "IRIDIUM 33 DEB",
        "meta_object_id": "1997-051CB",
        "meta_epoch": "2025-12-26T15:23:33.736416",
        "meta_mean_motion": 14.49646818,
        "meta_eccentricity": 0.0008881,
        "meta_inclination": 86.391,
        "meta_ra_of_asc_node": 40.0602,
        "meta_arg_of_pericenter": 145.5538,
        "meta_mean_anomaly": 340.1487,
        "meta_ephemeris_type": 0,
        "meta_classification_type": "U",
        "meta_norad_cat_id": 33966,
        "meta_element_set_no": 999,
        "meta_rev_at_epoch": 88643,
        "meta_bstar": 0.00051075,
        "meta_mean_motion_dot": 1.983e-05,
        "meta_mean_motion_ddot": 0,
        "tle_line1": "1 33966U 97051CB  25360.64136269  .00001983  00000+0  51075-3 0  9993",
        "tle_line2": "2 33966  86.3910  40.0602 0008881 145.5538 340.1487 14.49646818886431"
      },
      "geometry": {
        "type": "Point",
        "coordinates": [
          35.24435617420262,
          -51.93754336357997
        ]
      }
    },
    {
      "type": "Feature",
      "properties": {
        "norad_id": 34071,
        "name": "IRIDIUM 33 DEB",
        "group": "iridium-33-debris",
        "lat": 7.651074951374657,
        "lon": 12.081626162252471,
        "alt_km": 725.8446941750626,
        "timestamp": "2025-12-27T02:10:16.574016+00:00",
        "meta_object_name": "IRIDIUM 33 DEB",
        "meta_object_id": "1997-051CE",
        "meta_epoch": "2025-12-26T17:51:07.795008",
        "meta_mean_motion": 14.49526568,
        "meta_eccentricity": 0.0009804,
        "meta_inclination": 86.3453,
        "meta_ra_of_asc_node": 11.7403,
        "meta_arg_of_pericenter": 70.1047,
        "meta_mean_anomaly": 290.1213,
        "meta_ephemeris_type": 0,
        "meta_classification_type": "U",
        "meta_norad_cat_id": 34071,
        "meta_element_set_no": 999,
        "meta_rev_at_epoch": 88537,
        "meta_bstar": 0.00064162,
        "meta_mean_motion_dot": 2.48e-05,
        "meta_mean_motion_ddot": 0,
        "tle_line1": "1 34071U 97051CE  25360.74384022  .00002480  00000+0  64162-3 0  9998",
        "tle_line2": "2 34071  86.3453  11.7403 0009804  70.1047 290.1213 14.49526568885371"
      },
      "geometry": {
        "type": "Point",
        "coordinates": [
          12.081626162252471,
          7.651074951374657
        ]
      }
    },
    {
      "type": "Feature",
      "properties": {
        "norad_id": 34077,
        "name": "IRIDIUM 33 DEB",
        "group": "iridium-33-debris",
        "lat": -73.83007696062012,
        "lon": 32.590468948040794,
        "alt_km": 681.9421613668583,
        "timestamp": "2025-12-27T02:10:16.574026+00:00",
        "meta_object_name": "IRIDIUM 33 DEB",
        "meta_object_id": "1997-051CL",
        "meta_epoch": "2025-12-26T15:37:29.746272",
        "meta_mean_motion": 14.65017306,
        "meta_eccentricity": 0.0008586,
        "meta_inclination": 86.3849,
        "meta_ra_of_asc_node": 45.3778,
        "meta_arg_of_pericenter": 353.3839,
        "meta_mean_anomaly": 136.4278,
        "meta_ephemeris_type": 0,
        "meta_classification_type": "U",
        "meta_norad_cat_id": 34077,
        "meta_element_set_no": 999,
        "meta_rev_at_epoch": 88536,
        "meta_bstar": 0.0015938,
        "meta_mean_motion_dot": 8.57e-05,
        "meta_mean_motion_ddot": 0,
        "tle_line1": "1 34077U 97051CL  25360.65103873  .00008570  00000+0  15938-2 0  9999",
        "tle_line2": "2 34077  86.3849  45.3778 0008586 353.3839 136.4278 14.65017306885360"
      },
      "geometry": {
        "type": "Point",
        "coordinates": [
          32.590468948040794,
          -73.83007696062012
        ]
      }
    },
    {
      "type": "Feature",
      "properties": {
        "norad_id": 34079,
        "name": "IRIDIUM 33 DEB",
        "group": "iridium-33-debris",
        "lat": 12.828420102351156,
        "lon": -178.69313525941115,
        "alt_km": 620.4405854723864,
        "timestamp": "2025-12-27T02:10:16.574036+00:00",
        "meta_object_name": "IRIDIUM 33 DEB",
        "meta_object_id": "1997-051CN",
        "meta_epoch": "2025-12-26T18:07:27.996096",
        "meta_mean_motion": 14.83912945,
        "meta_eccentricity": 0.000379,
        "meta_inclination": 86.3778,
        "meta_ra_of_asc_node": 2.2859,
        "meta_arg_of_pericenter": 313.1989,
        "meta_mean_anomaly": 223.9138,
        "meta_ephemeris_type": 0,
        "meta_classification_type": "U",
        "meta_norad_cat_id": 34079,
        "meta_element_set_no": 999,
        "meta_rev_at_epoch": 89185,
        "meta_bstar": 0.0020562,
        "meta_mean_motion_dot": 0.00017127,
        "meta_mean_motion_ddot": 0,
        "tle_line1": "1 34079U 97051CN  25360.75518514  .00017127  00000+0  20562-2 0  9991",
        "tle_line2": "2 34079  86.3778   2.2859 0003790 313.1989 223.9138 14.83912945891858"
      },
      "geometry": {
        "type": "Point",
        "coordinates": [
          -178.69313525941115,
          12.828420102351156
        ]
      }
    }
  ]
}